[Satellite]
VERSION=1.1
NAME=EAGLE 2
NICKNAME=EAGLE 2
TLE1=1 39436U 13066W   18020.58256987  .00069894  00000-0  99790-3 0  9995
TLE2=2 39436  97.7125 144.8461 0005500   6.5467 353.5858 15.56023190229062
